0 COSMOS 2251 DEB
1 34953U 93036AEG 13284.16341586  .00002453  00000-0  66723-3 0  6052
2 34953 074.0995 102.8574 0086921 205.9795 272.0312 14.45804971236393
0 COSMOS 2251 DEB
1 34953U 93036AEG 13287.13878738  .00002754  00000-0  74798-3 0  6062
2 34953 074.0997 097.3277 0086734 199.7119 278.5534 14.45817635236821
0 COSMOS 2251 DEB
1 34953U 93036AEG 13289.14596213  .00004005  00000-0  10839-2 0  6077
2 34953 074.0999 093.5998 0086683 195.4484 285.8345 14.45830487237116
0 COSMOS 2251 DEB
1 34953U 93036AEG 13292.12128649  .00003613  00000-0  97846-3 0  6082
2 34953 074.1011 088.0711 0086595 189.2311 292.3660 14.45847201237548
0 COSMOS 2251 DEB
1 34953U 93036AEG 13294.12684265  .00004129  00000-0  11168-2 0  6091
2 34953 074.1016 084.3442 0086463 184.9663 291.4411 14.45858806237838
